SL-16 R/B               
1 22566U 93016B   25358.79110449  .00000302  00000+0  17926-3 0  9990
2 22566  71.0083  12.4919 0008047  73.5899 286.6108 14.15292513691570
COSMOS 2242             
1 22626U 93024A   25358.94185074  .00002166  00000+0  18967-3 0  9995
2 22626  82.5189 338.1809 0015871 190.7733 169.3152 14.96155092769211
SL-16 R/B               
1 22803U 93059B   25358.87223081  .00000309  00000+0  17653-3 0  9991
2 22803  70.9882 168.9016 0018585 318.5379  41.4334 14.17215715668930
ARIANE 40 R/B           
1 22830U 93061H   25358.69942456  .00000235  00000+0  10205-3 0  9992
2 22830  98.5060  64.0110 0011499 142.1689 218.0305 14.32808960683368
COSMOS 2278             
1 23087U 94023A   25358.62990274  .00000026  00000+0  38133-4 0  9999
2 23087  71.0534 332.1338 0007812 158.2800 201.8655 14.14348318634194
SL-16 R/B               
1 23088U 94023B   25358.85190373 -.00000247  00000+0 -10297-3 0  9994
2 23088  70.9978 228.0505 0002067   3.4631 356.6506 14.14999752635508
SL-16 R/B               
1 23343U 94074B   25358.87121034  .00000455  00000+0  67733-4 0  9991
2 23343  97.7190  27.6929 0008047 102.6863  70.0456 14.79302684676184
SL-16 R/B               
1 23405U 94077B   25358.86271225 -.00000182  00000+0 -68718-4 0  9993
2 23405  70.9820 149.9100 0005049 275.3583  84.6964 14.15552330605644
ARIANE 40+ R/B          
1 23561U 95021B   25358.84010282  .00000304  00000+0  11109-3 0  9993
2 23561  98.4635  66.2823 0006846  16.2115 100.2467 14.39704298608473
SL-16 R/B               
1 23705U 95058B   25358.93667679 -.00000176  00000+0 -65596-4 0  9990
2 23705  71.0216 337.1965 0014663 239.2411 120.7268 14.15481524557279
SL-16 R/B               
1 24298U 96051B   25358.67002485 -.00000020  00000+0  15779-4 0  9996
2 24298  70.7595 334.0304 0019487 246.7431 113.1637 14.12397530511052
ORBVIEW 2 (SEASTAR)     
1 24883U 97037A   25358.69555492  .00000281  00000+0  11392-3 0  9998
2 24883  98.8462 156.0713 0001238 289.2201  70.8849 14.35425161497711
