CCSDS_OMM_VERS = 2.0
CREATION_DATE  = 
ORIGINATOR     = 

OBJECT_NAME    = SL-16 R/B
OBJECT_ID      = 1993-016B
CENTER_NAME    = EARTH
REF_FRAME      = TEME
TIME_SYSTEM    = UTC
MEAN_ELEMENT_THEORY = SGP/SGP4

EPOCH          = 2025-12-24T18:59:11.427936
MEAN_MOTION    = 14.15292513
ECCENTRICITY   = .00080476
INCLINATION    = 71.0083
RA_OF_ASC_NODE = 12.4919
ARG_OF_PERICENTER = 73.5899
MEAN_ANOMALY   = 286.6108

EPHEMERIS_TYPE = 0
CLASSIFICATION_TYPE = U
NORAD_CAT_ID   = 22566
ELEMENT_SET_NO = 999
REV_AT_EPOCH   = 69157
BSTAR          = .1792642E-3
MEAN_MOTION_DOT = .302E-5
MEAN_MOTION_DDOT = 0

CCSDS_OMM_VERS = 2.0
CREATION_DATE  = 
ORIGINATOR     = 

OBJECT_NAME    = COSMOS 2242
OBJECT_ID      = 1993-024A
CENTER_NAME    = EARTH
REF_FRAME      = TEME
TIME_SYSTEM    = UTC
MEAN_ELEMENT_THEORY = SGP/SGP4

EPOCH          = 2025-12-24T22:36:15.903936
MEAN_MOTION    = 14.96155092
ECCENTRICITY   = .00158715
INCLINATION    = 82.5189
RA_OF_ASC_NODE = 338.1809
ARG_OF_PERICENTER = 190.7733
MEAN_ANOMALY   = 169.3152

EPHEMERIS_TYPE = 0
CLASSIFICATION_TYPE = U
NORAD_CAT_ID   = 22626
ELEMENT_SET_NO = 999
REV_AT_EPOCH   = 76921
BSTAR          = .18966811E-3
MEAN_MOTION_DOT = .2166E-4
MEAN_MOTION_DDOT = 0

CCSDS_OMM_VERS = 2.0
CREATION_DATE  = 
ORIGINATOR     = 

OBJECT_NAME    = SL-16 R/B
OBJECT_ID      = 1993-059B
CENTER_NAME    = EARTH
REF_FRAME      = TEME
TIME_SYSTEM    = UTC
MEAN_ELEMENT_THEORY = SGP/SGP4

EPOCH          = 2025-12-24T20:56:00.741984
MEAN_MOTION    = 14.17215715
ECCENTRICITY   = .0018585
INCLINATION    = 70.9882
RA_OF_ASC_NODE = 168.9016
ARG_OF_PERICENTER = 318.5379
MEAN_ANOMALY   = 41.4334

EPHEMERIS_TYPE = 0
CLASSIFICATION_TYPE = U
NORAD_CAT_ID   = 22803
ELEMENT_SET_NO = 999
REV_AT_EPOCH   = 66893
BSTAR          = .17652957E-3
MEAN_MOTION_DOT = .309E-5
MEAN_MOTION_DDOT = 0

CCSDS_OMM_VERS = 2.0
CREATION_DATE  = 
ORIGINATOR     = 

OBJECT_NAME    = ARIANE 40 R/B
OBJECT_ID      = 1993-061H
CENTER_NAME    = EARTH
REF_FRAME      = TEME
TIME_SYSTEM    = UTC
MEAN_ELEMENT_THEORY = SGP/SGP4

EPOCH          = 2025-12-24T16:47:10.281984
MEAN_MOTION    = 14.32808960
ECCENTRICITY   = .00114991
INCLINATION    = 98.5060
RA_OF_ASC_NODE = 64.0110
ARG_OF_PERICENTER = 142.1689
MEAN_ANOMALY   = 218.0305

EPHEMERIS_TYPE = 0
CLASSIFICATION_TYPE = U
NORAD_CAT_ID   = 22830
ELEMENT_SET_NO = 999
REV_AT_EPOCH   = 68336
BSTAR          = .10205258E-3
MEAN_MOTION_DOT = .235E-5
MEAN_MOTION_DDOT = 0

CCSDS_OMM_VERS = 2.0
CREATION_DATE  = 
ORIGINATOR     = 

OBJECT_NAME    = COSMOS 2278
OBJECT_ID      = 1994-023A
CENTER_NAME    = EARTH
REF_FRAME      = TEME
TIME_SYSTEM    = UTC
MEAN_ELEMENT_THEORY = SGP/SGP4

EPOCH          = 2025-12-24T15:07:03.596736
MEAN_MOTION    = 14.14348318
ECCENTRICITY   = .00078128
INCLINATION    = 71.0534
RA_OF_ASC_NODE = 332.1338
ARG_OF_PERICENTER = 158.2800
MEAN_ANOMALY   = 201.8655

EPHEMERIS_TYPE = 0
CLASSIFICATION_TYPE = U
NORAD_CAT_ID   = 23087
ELEMENT_SET_NO = 999
REV_AT_EPOCH   = 63419
BSTAR          = .38132785E-4
MEAN_MOTION_DOT = .26E-6
MEAN_MOTION_DDOT = 0

CCSDS_OMM_VERS = 2.0
CREATION_DATE  = 
ORIGINATOR     = 

OBJECT_NAME    = SL-16 R/B
OBJECT_ID      = 1994-023B
CENTER_NAME    = EARTH
REF_FRAME      = TEME
TIME_SYSTEM    = UTC
MEAN_ELEMENT_THEORY = SGP/SGP4

EPOCH          = 2025-12-24T20:26:44.482272
MEAN_MOTION    = 14.14999752
ECCENTRICITY   = .00020677
INCLINATION    = 70.9978
RA_OF_ASC_NODE = 228.0505
ARG_OF_PERICENTER = 3.4631
MEAN_ANOMALY   = 356.6506

EPHEMERIS_TYPE = 0
CLASSIFICATION_TYPE = U
NORAD_CAT_ID   = 23088
ELEMENT_SET_NO = 999
REV_AT_EPOCH   = 63550
BSTAR          = -.10297161E-3
MEAN_MOTION_DOT = -.247E-5
MEAN_MOTION_DDOT = 0

CCSDS_OMM_VERS = 2.0
CREATION_DATE  = 
ORIGINATOR     = 

OBJECT_NAME    = SL-16 R/B
OBJECT_ID      = 1994-074B
CENTER_NAME    = EARTH
REF_FRAME      = TEME
TIME_SYSTEM    = UTC
MEAN_ELEMENT_THEORY = SGP/SGP4

EPOCH          = 2025-12-24T20:54:32.573376
MEAN_MOTION    = 14.79302684
ECCENTRICITY   = .00080474
INCLINATION    = 97.7190
RA_OF_ASC_NODE = 27.6929
ARG_OF_PERICENTER = 102.6863
MEAN_ANOMALY   = 70.0456

EPHEMERIS_TYPE = 0
CLASSIFICATION_TYPE = U
NORAD_CAT_ID   = 23343
ELEMENT_SET_NO = 999
REV_AT_EPOCH   = 67618
BSTAR          = .6773283E-4
MEAN_MOTION_DOT = .455E-5
MEAN_MOTION_DDOT = 0

CCSDS_OMM_VERS = 2.0
CREATION_DATE  = 
ORIGINATOR     = 

OBJECT_NAME    = SL-16 R/B
OBJECT_ID      = 1994-077B
CENTER_NAME    = EARTH
REF_FRAME      = TEME
TIME_SYSTEM    = UTC
MEAN_ELEMENT_THEORY = SGP/SGP4

EPOCH          = 2025-12-24T20:42:18.338400
MEAN_MOTION    = 14.15552330
ECCENTRICITY   = .00050494
INCLINATION    = 70.9820
RA_OF_ASC_NODE = 149.9100
ARG_OF_PERICENTER = 275.3583
MEAN_ANOMALY   = 84.6964

EPHEMERIS_TYPE = 0
CLASSIFICATION_TYPE = U
NORAD_CAT_ID   = 23405
ELEMENT_SET_NO = 999
REV_AT_EPOCH   = 60564
BSTAR          = -.68718375E-4
MEAN_MOTION_DOT = -.182E-5
MEAN_MOTION_DDOT = 0

CCSDS_OMM_VERS = 2.0
CREATION_DATE  = 
ORIGINATOR     = 

OBJECT_NAME    = ARIANE 40+ R/B
OBJECT_ID      = 1995-021B
CENTER_NAME    = EARTH
REF_FRAME      = TEME
TIME_SYSTEM    = UTC
MEAN_ELEMENT_THEORY = SGP/SGP4

EPOCH          = 2025-12-24T20:09:44.883648
MEAN_MOTION    = 14.39704298
ECCENTRICITY   = .00068465
INCLINATION    = 98.4635
RA_OF_ASC_NODE = 66.2823
ARG_OF_PERICENTER = 16.2115
MEAN_ANOMALY   = 100.2467

EPHEMERIS_TYPE = 0
CLASSIFICATION_TYPE = U
NORAD_CAT_ID   = 23561
ELEMENT_SET_NO = 999
REV_AT_EPOCH   = 60847
BSTAR          = .11109024E-3
MEAN_MOTION_DOT = .304E-5
MEAN_MOTION_DDOT = 0

CCSDS_OMM_VERS = 2.0
CREATION_DATE  = 
ORIGINATOR     = 

OBJECT_NAME    = SL-16 R/B
OBJECT_ID      = 1995-058B
CENTER_NAME    = EARTH
REF_FRAME      = TEME
TIME_SYSTEM    = UTC
MEAN_ELEMENT_THEORY = SGP/SGP4

EPOCH          = 2025-12-24T22:28:48.874656
MEAN_MOTION    = 14.15481524
ECCENTRICITY   = .00146636
INCLINATION    = 71.0216
RA_OF_ASC_NODE = 337.1965
ARG_OF_PERICENTER = 239.2411
MEAN_ANOMALY   = 120.7268

EPHEMERIS_TYPE = 0
CLASSIFICATION_TYPE = U
NORAD_CAT_ID   = 23705
ELEMENT_SET_NO = 999
REV_AT_EPOCH   = 55727
BSTAR          = -.65596442E-4
MEAN_MOTION_DOT = -.176E-5
MEAN_MOTION_DDOT = 0

CCSDS_OMM_VERS = 2.0
CREATION_DATE  = 
ORIGINATOR     = 

OBJECT_NAME    = SL-16 R/B
OBJECT_ID      = 1996-051B
CENTER_NAME    = EARTH
REF_FRAME      = TEME
TIME_SYSTEM    = UTC
MEAN_ELEMENT_THEORY = SGP/SGP4

EPOCH          = 2025-12-24T16:04:50.147040
MEAN_MOTION    = 14.12397530
ECCENTRICITY   = .00194871
INCLINATION    = 70.7595
RA_OF_ASC_NODE = 334.0304
ARG_OF_PERICENTER = 246.7431
MEAN_ANOMALY   = 113.1637

EPHEMERIS_TYPE = 0
CLASSIFICATION_TYPE = U
NORAD_CAT_ID   = 24298
ELEMENT_SET_NO = 999
REV_AT_EPOCH   = 51105
BSTAR          = .1577905E-4
MEAN_MOTION_DOT = -.2E-6
MEAN_MOTION_DDOT = 0

CCSDS_OMM_VERS = 2.0
CREATION_DATE  = 
ORIGINATOR     = 

OBJECT_NAME    = ORBVIEW 2 (SEASTAR)
OBJECT_ID      = 1997-037A
CENTER_NAME    = EARTH
REF_FRAME      = TEME
TIME_SYSTEM    = UTC
MEAN_ELEMENT_THEORY = SGP/SGP4

EPOCH          = 2025-12-24T16:41:35.945088
MEAN_MOTION    = 14.35425161
ECCENTRICITY   = .00012385
INCLINATION    = 98.8462
RA_OF_ASC_NODE = 156.0713
ARG_OF_PERICENTER = 289.2201
MEAN_ANOMALY   = 70.8849

EPHEMERIS_TYPE = 0
CLASSIFICATION_TYPE = U
NORAD_CAT_ID   = 24883
ELEMENT_SET_NO = 999
REV_AT_EPOCH   = 49771
BSTAR          = .11391535E-3
MEAN_MOTION_DOT = .281E-5
MEAN_MOTION_DDOT = 0

